[{"OBJECT_NAME":"POLYITAN-1","OBJECT_ID":"2014-033AJ","EPOCH":"2026-04-27T01:15:02.913120","MEAN_MOTION":15.3148577,"ECCENTRICITY":0.0006036,"INCLINATION":98.0994,"RA_OF_ASC_NODE":138.542,"ARG_OF_PERICENTER":340.1498,"MEAN_ANOMALY":19.9506,"EPHEMERIS_TYPE":0,"CLASSIFICATION_TYPE":"U","NORAD_CAT_ID":40042,"ELEMENT_SET_NO":999,"REV_AT_EPOCH":64576,"BSTAR":0.00064477,"MEAN_MOTION_DOT":0.00019557,"MEAN_MOTION_DDOT":0},{"OBJECT_NAME":"TIGRISAT","OBJECT_ID":"2014-033AK","EPOCH":"2026-04-26T08:50:27.796992","MEAN_MOTION":14.84936304,"ECCENTRICITY":0.00482211,"INCLINATION":97.7766,"RA_OF_ASC_NODE":267.5945,"ARG_OF_PERICENTER":243.8627,"MEAN_ANOMALY":115.7623,"EPHEMERIS_TYPE":0,"CLASSIFICATION_TYPE":"U","NORAD_CAT_ID":40043,"ELEMENT_SET_NO":999,"REV_AT_EPOCH":63793,"BSTAR":0.00026669056,"MEAN_MOTION_DOT":2.262e-5,"MEAN_MOTION_DDOT":0},{"OBJECT_NAME":"AISAT","OBJECT_ID":"2014-034B","EPOCH":"2026-04-27T00:21:44.379072","MEAN_MOTION":15.07808317,"ECCENTRICITY":0.0010648,"INCLINATION":98.2422,"RA_OF_ASC_NODE":25.7293,"ARG_OF_PERICENTER":42.919,"MEAN_ANOMALY":317.2865,"EPHEMERIS_TYPE":0,"CLASSIFICATION_TYPE":"U","NORAD_CAT_ID":40054,"ELEMENT_SET_NO":999,"REV_AT_EPOCH":63949,"BSTAR":0.00080016,"MEAN_MOTION_DOT":0.00012203,"MEAN_MOTION_DDOT":0},{"OBJECT_NAME":"CANX-4","OBJECT_ID":"2014-034C","EPOCH":"2026-04-27T01:57:58.840992","MEAN_MOTION":14.81168577,"ECCENTRICITY":0.001291,"INCLINATION":98.3193,"RA_OF_ASC_NODE":350.5034,"ARG_OF_PERICENTER":169.6956,"MEAN_ANOMALY":190.4523,"EPHEMERIS_TYPE":0,"CLASSIFICATION_TYPE":"U","NORAD_CAT_ID":40055,"ELEMENT_SET_NO":999,"REV_AT_EPOCH":63696,"BSTAR":0.00012484,"MEAN_MOTION_DOT":9.15e-6,"MEAN_MOTION_DDOT":0},{"OBJECT_NAME":"CANX-5","OBJECT_ID":"2014-034D","EPOCH":"2026-04-27T01:56:34.346112","MEAN_MOTION":14.81185572,"ECCENTRICITY":0.001291,"INCLINATION":98.3196,"RA_OF_ASC_NODE":350.5429,"ARG_OF_PERICENTER":169.9041,"MEAN_ANOMALY":190.2432,"EPHEMERIS_TYPE":0,"CLASSIFICATION_TYPE":"U","NORAD_CAT_ID":40056,"ELEMENT_SET_NO":999,"REV_AT_EPOCH":62777,"BSTAR":0.00012473,"MEAN_MOTION_DOT":9.14e-6,"MEAN_MOTION_DDOT":0},{"OBJECT_NAME":"VELOX-I","OBJECT_ID":"2014-034E","EPOCH":"2026-04-27T05:07:54.598368","MEAN_MOTION":14.97404196,"ECCENTRICITY":0.0009544,"INCLINATION":98.2589,"RA_OF_ASC_NODE":19.3353,"ARG_OF_PERICENTER":82.1193,"MEAN_ANOMALY":278.1111,"EPHEMERIS_TYPE":0,"CLASSIFICATION_TYPE":"U","NORAD_CAT_ID":40057,"ELEMENT_SET_NO":999,"REV_AT_EPOCH":63897,"BSTAR":0.00059826,"MEAN_MOTION_DOT":6.901e-5,"MEAN_MOTION_DDOT":0},{"OBJECT_NAME":"GONETS-M 10","OBJECT_ID":"2014-036C","EPOCH":"2026-04-27T04:45:57.051936","MEAN_MOTION":12.42943768,"ECCENTRICITY":0.0020882,"INCLINATION":82.5136,"RA_OF_ASC_NODE":339.3537,"ARG_OF_PERICENTER":253.4551,"MEAN_ANOMALY":106.4235,"EPHEMERIS_TYPE":0,"CLASSIFICATION_TYPE":"U","NORAD_CAT_ID":40063,"ELEMENT_SET_NO":999,"REV_AT_EPOCH":53591,"BSTAR":-0.00037622,"MEAN_MOTION_DOT":-4.2e-7,"MEAN_MOTION_DDOT":0},{"OBJECT_NAME":"METEOR-M 2","OBJECT_ID":"2014-037A","EPOCH":"2026-04-27T04:23:24.366624","MEAN_MOTION":14.21447804,"ECCENTRICITY":0.0005607,"INCLINATION":98.5086,"RA_OF_ASC_NODE":94.7378,"ARG_OF_PERICENTER":173.16,"MEAN_ANOMALY":186.9655,"EPHEMERIS_TYPE":0,"CLASSIFICATION_TYPE":"U","NORAD_CAT_ID":40069,"ELEMENT_SET_NO":999,"REV_AT_EPOCH":61207,"BSTAR":0.00020267,"MEAN_MOTION_DOT":4.01e-6,"MEAN_MOTION_DDOT":0},{"OBJECT_NAME":"DX1","OBJECT_ID":"2014-037C","EPOCH":"2026-04-27T04:28:02.960832","MEAN_MOTION":14.89823292,"ECCENTRICITY":0.0008722,"INCLINATION":98.3829,"RA_OF_ASC_NODE":75.813,"ARG_OF_PERICENTER":79.462,"MEAN_ANOMALY":280.7578,"EPHEMERIS_TYPE":0,"CLASSIFICATION_TYPE":"U","NORAD_CAT_ID":40071,"ELEMENT_SET_NO":999,"REV_AT_EPOCH":63851,"BSTAR":0.00028005,"MEAN_MOTION_DOT":2.628e-5,"MEAN_MOTION_DDOT":0},{"OBJECT_NAME":"UKUBE-1","OBJECT_ID":"2014-037F","EPOCH":"2026-04-26T17:16:14.274624","MEAN_MOTION":15.12723325,"ECCENTRICITY":0.00018433,"INCLINATION":98.4248,"RA_OF_ASC_NODE":114.6212,"ARG_OF_PERICENTER":46.5426,"MEAN_ANOMALY":313.5956,"EPHEMERIS_TYPE":0,"CLASSIFICATION_TYPE":"U","NORAD_CAT_ID":40074,"ELEMENT_SET_NO":999,"REV_AT_EPOCH":64077,"BSTAR":0.00061675047,"MEAN_MOTION_DOT":0.00010736,"MEAN_MOTION_DDOT":0},{"OBJECT_NAME":"GAOFEN-2","OBJECT_ID":"2014-049A","EPOCH":"2026-04-27T03:53:03.509952","MEAN_MOTION":14.80840576,"ECCENTRICITY":0.0008414,"INCLINATION":98.0142,"RA_OF_ASC_NODE":181.411,"ARG_OF_PERICENTER":46.2297,"MEAN_ANOMALY":313.961,"EPHEMERIS_TYPE":0,"CLASSIFICATION_TYPE":"U","NORAD_CAT_ID":40118,"ELEMENT_SET_NO":999,"REV_AT_EPOCH":63168,"BSTAR":9.3215e-5,"MEAN_MOTION_DOT":6.66e-6,"MEAN_MOTION_DDOT":0},{"OBJECT_NAME":"BRITE-PL2 (HEWELIUSZ)","OBJECT_ID":"2014-049B","EPOCH":"2026-04-26T21:15:36.359136","MEAN_MOTION":14.94398069,"ECCENTRICITY":0.0012695,"INCLINATION":97.9036,"RA_OF_ASC_NODE":228.5152,"ARG_OF_PERICENTER":280.7867,"MEAN_ANOMALY":79.1924,"EPHEMERIS_TYPE":0,"CLASSIFICATION_TYPE":"U","NORAD_CAT_ID":40119,"ELEMENT_SET_NO":999,"REV_AT_EPOCH":63378,"BSTAR":0.00015245,"MEAN_MOTION_DOT":1.584e-5,"MEAN_MOTION_DDOT":0},{"OBJECT_NAME":"CBERS 4","OBJECT_ID":"2014-079A","EPOCH":"2026-04-27T05:23:17.258784","MEAN_MOTION":14.35544867,"ECCENTRICITY":0.0001323,"INCLINATION":98.3393,"RA_OF_ASC_NODE":175.6611,"ARG_OF_PERICENTER":131.3063,"MEAN_ANOMALY":228.8237,"EPHEMERIS_TYPE":0,"CLASSIFICATION_TYPE":"U","NORAD_CAT_ID":40336,"ELEMENT_SET_NO":999,"REV_AT_EPOCH":59664,"BSTAR":1.1445e-5,"MEAN_MOTION_DOT":-9.0e-8,"MEAN_MOTION_DDOT":0},{"OBJECT_NAME":"SMAP","OBJECT_ID":"2015-003A","EPOCH":"2026-04-27T03:21:28.490112","MEAN_MOTION":14.63392699,"ECCENTRICITY":0.0001769,"INCLINATION":98.1294,"RA_OF_ASC_NODE":124.9539,"ARG_OF_PERICENTER":76.8803,"MEAN_ANOMALY":283.2597,"EPHEMERIS_TYPE":0,"CLASSIFICATION_TYPE":"U","NORAD_CAT_ID":40376,"ELEMENT_SET_NO":999,"REV_AT_EPOCH":60015,"BSTAR":9.7123e-5,"MEAN_MOTION_DOT":4.55e-6,"MEAN_MOTION_DDOT":0},{"OBJECT_NAME":"GONETS-M 11","OBJECT_ID":"2015-020A","EPOCH":"2026-04-27T05:08:36.815136","MEAN_MOTION":12.42874804,"ECCENTRICITY":0.0017147,"INCLINATION":82.4853,"RA_OF_ASC_NODE":62.747,"ARG_OF_PERICENTER":110.6062,"MEAN_ANOMALY":249.6858,"EPHEMERIS_TYPE":0,"CLASSIFICATION_TYPE":"U","NORAD_CAT_ID":40552,"ELEMENT_SET_NO":999,"REV_AT_EPOCH":50240,"BSTAR":-0.00035733,"MEAN_MOTION_DOT":-3.9e-7,"MEAN_MOTION_DDOT":0},{"OBJECT_NAME":"GONETS-M 12","OBJECT_ID":"2015-020B","EPOCH":"2026-04-27T04:31:17.620032","MEAN_MOTION":12.42889801,"ECCENTRICITY":0.0016306,"INCLINATION":82.4886,"RA_OF_ASC_NODE":63.8738,"ARG_OF_PERICENTER":96.1275,"MEAN_ANOMALY":264.1663,"EPHEMERIS_TYPE":0,"CLASSIFICATION_TYPE":"U","NORAD_CAT_ID":40553,"ELEMENT_SET_NO":999,"REV_AT_EPOCH":50239,"BSTAR":0.00034648,"MEAN_MOTION_DOT":5.8e-7,"MEAN_MOTION_DDOT":0},{"OBJECT_NAME":"GONETS-M 13","OBJECT_ID":"2015-020C","EPOCH":"2026-04-27T03:51:52.229088","MEAN_MOTION":12.42868447,"ECCENTRICITY":0.0015019,"INCLINATION":82.485,"RA_OF_ASC_NODE":62.5206,"ARG_OF_PERICENTER":82.0435,"MEAN_ANOMALY":278.2349,"EPHEMERIS_TYPE":0,"CLASSIFICATION_TYPE":"U","NORAD_CAT_ID":40554,"ELEMENT_SET_NO":999,"REV_AT_EPOCH":50236,"BSTAR":0.00029619,"MEAN_MOTION_DOT":5.1e-7,"MEAN_MOTION_DDOT":0}]
