POLYITAN-1              
1 40042U 14033AJ  26117.05211705  .00019557  00000+0  64477-3 0  9996
2 40042  98.0994 138.5420 0006036 340.1498  19.9506 15.31485770645767
TIGRISAT                
1 40043U 14033AK  26116.36837728  .00002262  00000+0  26669-3 0  9995
2 40043  97.7766 267.5945 0048221 243.8627 115.7623 14.84936304637937
AISAT                   
1 40054U 14034B   26117.01509698  .00012203  00000+0  80016-3 0  9995
2 40054  98.2422  25.7293 0010648  42.9190 317.2865 15.07808317639497
CANX-4                  
1 40055U 14034C   26117.08193103  .00000915  00000+0  12484-3 0  9994
2 40055  98.3193 350.5034 0012910 169.6956 190.4523 14.81168577636966
CANX-5                  
1 40056U 14034D   26117.08095308  .00000914  00000+0  12473-3 0  9990
2 40056  98.3196 350.5429 0012910 169.9041 190.2432 14.81185572627776
VELOX-I                 
1 40057U 14034E   26117.21382637  .00006901  00000+0  59826-3 0  9995
2 40057  98.2589  19.3353 0009544  82.1193 278.1111 14.97404196638978
GONETS-M 10             
1 40063U 14036C   26117.19857699 -.00000042  00000+0 -37622-3 0  9998
2 40063  82.5136 339.3537 0020882 253.4551 106.4235 12.42943768535918
METEOR-M 2              
1 40069U 14037A   26117.18292091  .00000401  00000+0  20267-3 0  9997
2 40069  98.5086  94.7378 0005607 173.1600 186.9655 14.21447804612072
DX1                     
1 40071U 14037C   26117.18614538  .00002628  00000+0  28005-3 0  9995
2 40071  98.3829  75.8130 0008722  79.4620 280.7578 14.89823292638512
UKUBE-1                 
1 40074U 14037F   26116.71960966  .00010736  00000+0  61675-3 0  9994
2 40074  98.4248 114.6212 0001843  46.5426 313.5956 15.12723325640779
GAOFEN-2                
1 40118U 14049A   26117.16184618  .00000666  00000+0  93215-4 0  9995
2 40118  98.0142 181.4110 0008414  46.2297 313.9610 14.80840576631683
BRITE-PL2 (HEWELIUSZ)   
1 40119U 14049B   26116.88583749  .00001584  00000+0  15245-3 0  9998
2 40119  97.9036 228.5152 0012695 280.7867  79.1924 14.94398069633789
CBERS 4                 
1 40336U 14079A   26117.22450531 -.00000009  00000+0  11445-4 0  9994
2 40336  98.3393 175.6611 0001323 131.3063 228.8237 14.35544867596645
SMAP                    
1 40376U 15003A   26117.13991308  .00000455  00000+0  97123-4 0  9999
2 40376  98.1294 124.9539 0001769  76.8803 283.2597 14.63392699600153
GONETS-M 11             
1 40552U 15020A   26117.21431499 -.00000039  00000+0 -35733-3 0  9991
2 40552  82.4853  62.7470 0017147 110.6062 249.6858 12.42874804502403
GONETS-M 12             
1 40553U 15020B   26117.18839838  .00000058  00000+0  34648-3 0  9990
2 40553  82.4886  63.8738 0016306  96.1275 264.1663 12.42889801502396
GONETS-M 13             
1 40554U 15020C   26117.16102117  .00000051  00000+0  29619-3 0  9997
2 40554  82.4850  62.5206 0015019  82.0435 278.2349 12.42868447502363
